[{"OBJECT_NAME":"STARLINK-32536","OBJECT_ID":"2024-207P","EPOCH":"2026-03-09T22:25:28.688448","MEAN_MOTION":15.2762972,"ECCENTRICITY":0.00019239,"INCLINATION":43.0003,"RA_OF_ASC_NODE":284.3214,"ARG_OF_PERICENTER":274.1329,"MEAN_ANOMALY":85.9303,"EPHEMERIS_TYPE":0,"CLASSIFICATION_TYPE":"U","NORAD_CAT_ID":61925,"ELEMENT_SET_NO":999,"REV_AT_EPOCH":7471,"BSTAR":0.0010205219,"MEAN_MOTION_DOT":0.0002797,"MEAN_MOTION_DDOT":0},{"OBJECT_NAME":"OV1-9 R\/B","OBJECT_ID":"1966-111D","EPOCH":"2026-03-09T11:11:11.790816","MEAN_MOTION":10.49794392,"ECCENTRICITY":0.22219732,"INCLINATION":99.1017,"RA_OF_ASC_NODE":33.3571,"ARG_OF_PERICENTER":215.4287,"MEAN_ANOMALY":127.6991,"EPHEMERIS_TYPE":0,"CLASSIFICATION_TYPE":"U","NORAD_CAT_ID":2622,"ELEMENT_SET_NO":999,"REV_AT_EPOCH":23443,"BSTAR":0.00023551925,"MEAN_MOTION_DOT":5.76e-6,"MEAN_MOTION_DDOT":0}]
